{
    "links": {
        "self": "http://www.neowsapp.com/rest/v1/neo/3787069?api_key=iIulBulltgU6a56xZRHN4H3l9WmuAYTsLGpBGhQ2"
    },
    "id": "3787069",
    "neo_reference_id": "3787069",
    "name": "(2017 UT)",
    "designation": "2017 UT",
    "nasa_jpl_url": "http://ssd.jpl.nasa.gov/sbdb.cgi?sstr=3787069",
    "absolute_magnitude_h": 23.0,
    "estimated_diameter": {
        "kilometers": {
            "estimated_diameter_min": 0.0667659413,
            "estimated_diameter_max": 0.1492931834
        },
        "meters": {
            "estimated_diameter_min": 66.7659413495,
            "estimated_diameter_max": 149.2931834393
        },
        "miles": {
            "estimated_diameter_min": 0.0414864197,
            "estimated_diameter_max": 0.0927664547
        },
        "feet": {
            "estimated_diameter_min": 219.0483710172,
            "estimated_diameter_max": 489.807047955
        }
    },
    "is_potentially_hazardous_asteroid": false,
    "close_approach_data": [
        {
            "close_approach_date": "2017-10-17",
            "close_approach_date_full": "2017-Oct-17 09:27",
            "epoch_date_close_approach": 1508232420000,
            "relative_velocity": {
                "kilometers_per_second": "10.9532462941",
                "kilometers_per_hour": "39431.6866587805",
                "miles_per_hour": "24501.316635285"
            },
            "miss_distance": {
                "astronomical": "0.0843197494",
                "lunar": "32.8003825166",
                "kilometers": "12614054.909173778",
                "miles": "7838010.2671950164"
            },
            "orbiting_body": "Earth"
        }
    ],
    "orbital_data": {
        "orbit_id": "8",
        "orbit_determination_date": "2017-11-11 06:19:29",
        "first_observation_date": "2017-10-17",
        "last_observation_date": "2017-11-11",
        "data_arc_in_days": 25,
        "observations_used": 71,
        "orbit_uncertainty": "7",
        "minimum_orbit_intersection": ".0500758",
        "jupiter_tisserand_invariant": "3.216",
        "epoch_osculation": "2459000.5",
        "eccentricity": ".5717728055455741",
        "semi_major_axis": "2.447603453540192",
        "inclination": "14.36649656897781",
        "ascending_node_longitude": "15.98975336142403",
        "orbital_period": "1398.65310188418",
        "perihelion_distance": "1.04813036004648",
        "perihelion_argument": "1.631276605235853",
        "aphelion_distance": "3.847076547033904",
        "perihelion_time": "2459439.601361979878",
        "mean_anomaly": "246.9794875514128",
        "mean_motion": ".257390484827889",
        "equinox": "J2000",
        "orbit_class": {
            "orbit_class_type": "AMO",
            "orbit_class_description": "Near-Earth asteroid orbits similar to that of 1221 Amor",
            "orbit_class_range": "1.017 AU < q (perihelion) < 1.3 AU"
        }
    },
    "is_sentry_object": false
}